[
    {
        "Altitude(m)": 607886.6691537045,
        "Argument of Periapsis(deg)": 0.0,
        "Eccentricity": 0.0,
        "Inclination(deg)": 60.0,
        "Latitude(deg)": 40.99838326548502,
        "Longitude(deg)": -55.027097330718135,
        "Mean Anomaly(deg)": 49.09089999999999,
        "RAAN(deg)": 15.0,
        "Satellite Name": "Test1 69",
        "Satellite Number": 69,
        "Semi-Major Axis(m)": 6980739.136638005,
        "Time(s)": 0
    },
    {
        "Altitude(m)": 607987.5834377583,
        "Argument of Periapsis(deg)": 0.00010418945913296404,
        "Eccentricity": 0.0,
        "Inclination(deg)": 60.0,
        "Latitude(deg)": 41.46347413365514,
        "Longitude(deg)": -54.522871191669275,
        "Mean Anomaly(deg)": 49.71100614546182,
        "RAAN(deg)": 14.999579950860259,
        "Satellite Name": "Test1 69",
        "Satellite Number": 69,
        "Semi-Major Axis(m)": 6980739.136638005,
        "Time(s)": 10
    }
]